BEIDOU-2 G8             
1 44231U 19027A   26170.63637859 -.00000254  00000+0  00000+0 0  9996
2 44231   1.6653  74.5070 0010129 282.0611 284.9181  1.00270025 26102
COSMOS 2534 [GLONASS-M] 
1 44299U 19030A   26170.58782523  .00000058  00000+0  00000+0 0  9998
2 44299  64.3684 192.5358 0013483 275.0708 265.7361  2.13102291 54978
BEIDOU-3 IGSO-2         
1 44337U 19035A   26169.88675894 -.00000097  00000+0  00000+0 0  9993
2 44337  55.2463 158.8478 0039664 216.5160 330.6306  1.00265889 25689
NAVSTAR 78 (USA 293)    
1 44506U 19056A   26170.59132437 -.00000091  00000+0  00000+0 0  9999
2 44506  55.6358 331.0462 0062107 197.6187 125.7544  2.00569693 50112
BEIDOU-3 M24            
1 44542U 19061A   26169.85330200  .00000056  00000+0  00000+0 0  9990
2 44542  54.3963 182.6715 0008348 358.6027   1.4189  1.86229057 45827
BEIDOU-3 M23            
1 44543U 19061B   26170.25301440  .00000058  00000+0  00000+0 0  9993
2 44543  54.3946 182.6263 0005713 337.5161 202.0761  1.86227435 45839
EUTELSAT 5 WEST B       
1 44624U 19067A   26170.39294924 -.00000049  00000+0  00000+0 0  9993
2 44624   0.0625 350.0585 0003056  98.0803 315.9587  1.00269922 24457
BEIDOU-3 M22            
1 44793U 19078A   26170.23013009 -.00000082  00000+0  00000+0 0  9995
2 44793  53.9341 299.7561 0006315  50.8799 309.1730  1.86227099 44685
BEIDOU-3 M21            
1 44794U 19078B   26169.29611751 -.00000076  00000+0  00000+0 0  9991
2 44794  53.9076 299.7502 0004064  49.2520 310.7784  1.86227678 44678
COSMOS 2544 [GLONASS-M] 
1 44850U 19088A   26169.43716075 -.00000023  00000+0  00000+0 0  9998
2 44850  65.5663  73.6893 0013127 258.8621 101.0278  2.13102753 50745
BEIDOU-3 M19            
1 44864U 19090A   26170.32723203 -.00000063  00000+0  00000+0 0  9991
2 44864  56.5606  62.7196 0017807 298.1010 230.5750  1.86231227 44272
BEIDOU-3 M20            
1 44865U 19090B   26169.67527745 -.00000058  00000+0  00000+0 0  9995
2 44865  56.5620  62.7761 0015615 312.2190 228.9431  1.86231125 44240
BEIDOU-3 G2             
1 45344U 20017A   26170.62366088 -.00000147  00000+0  00000+0 0  9996
2 45344   2.8701  47.3931 0002050  33.6677 131.3840  1.00271738 23280
COSMOS 2545 [GLONASS-M] 
1 45358U 20018A   26167.28584185 -.00000055  00000+0  00000+0 0  9998
2 45358  64.3556 312.4510 0008397 230.0424 129.8687  2.13102431 48644
BEIDOU-3 G3             
1 45807U 20040A   26170.64615287 -.00000359  00000+0  00000+0 0  9991
2 45807   2.4543  67.4612 0002355 337.0727 206.3951  1.00265135 22096
NAVSTAR 79 (USA 304)    
1 45854U 20041A   26165.55605578 -.00000064  00000+0  00000+0 0  9993
2 45854  56.6678  29.0455 0063716 204.6721  21.4099  2.00558471 43987
GALAXY 30 (G-30)        
1 46114U 20056C   26170.51175532  .00000031  00000+0  00000+0 0  9996
2 46114   0.0177   4.8227 0002236  83.1357 239.0036  1.00272740 21319
COSMOS 2547 [GLONASS-K] 
1 46805U 20075A   26170.29095409  .00000057  00000+0  00000+0 0  9991
2 46805  64.5997 192.4053 0009333 239.7748 120.1782  2.13100021 43959
NAVSTAR 80 (USA 309)    
1 46826U 20078A   26170.49818348  .00000026  00000+0  00000+0 0  9990
2 46826  53.9793 210.6846 0073602 207.3175 323.5307  2.00564899 41555
NAVSTAR 81 (USA 319)    
1 48859U 21054A   26167.95784770 -.00000087  00000+0  00000+0 0  9999
2 48859  55.1744 332.4683 0025342 228.5515  94.2637  2.00568788 36740
QZS-1R (MICHIBIKI-1R)   
1 49336U 21096A   26169.67274185 -.00000287  00000+0  00000+0 0  9993
2 49336  37.4655  79.5604 0754676 271.8345 291.5952  1.00254899 17024
GSAT0223 (GALILEO 27)   
1 49809U 21116A   26170.37539307 -.00000094  00000+0  00000+0 0  9996
2 49809  57.1602 341.6147 0001549 185.9794 196.7939  1.70475883 28222
GSAT0224 (GALILEO 28)   
1 49810U 21116B   26168.98509303 -.00000091  00000+0  00000+0 0  9992
2 49810  57.1613 341.6514 0001177 159.9709 202.1698  1.70475877 28225
COSMOS 2557 [GLONASS-K] 
1 52984U 22075A   26169.04745899 -.00000057  00000+0  00000+0 0  9995
2 52984  64.2982 314.4552 0010271 274.5611  85.3098  2.13102015 30733
COSMOS 2559 [GLONASS-K] 
1 54031U 22130A   26169.33634979 -.00000058  00000+0  00000+0 0  9991
2 54031  64.2705 314.5280 0012585 178.2040 181.7898  2.13101593 28710
COSMOS 2564 [GLONASS-M] 
1 54377U 22161A   26170.11812921  .00000056  00000+0  00000+0 0  9998
2 54377  64.7419 192.6477 0012209 224.8442 135.1033  2.13102019 27672
NAVSTAR 82 (USA 343)    
1 55268U 23009A   26169.94725234  .00000054  00000+0  00000+0 0  9997
2 55268  55.1230 148.4494 0006209 317.1240  40.4991  2.00571367 25277
BEIDOU-3 G4             
1 56564U 23066A   26170.63551192 -.00000287  00000+0  00000+0 0  9997
2 56564   0.4834 332.1808 0004426 179.3704 125.1354  1.00273040 11414
NVS-01 (IRNSS-1J)       
1 56759U 23076A   26170.27695447 -.00000343  00000+0  00000+0 0  9999
2 56759   2.1602 244.2432 0003074  35.9095 216.4487  1.00263943 11137
COSMOS 2569 [GLONASS-K2]
1 57517U 23114A   26170.13047116 -.00000029  00000+0  00000+0 0  9995
2 57517  65.3032  72.5548 0010620 296.9045  63.0260  2.13103731 22306
BEIDOU-3 M28            
1 58654U 23207A   26169.37320185 -.00000058  00000+0  00000+0 0  9997
2 58654  55.7537  62.2629 0003249 347.9613  12.0730  1.86229635 16866
